SPACEMOBILE-003         
1 61045U 24163A   26196.14762867  .00000955  00000+0  57545-4 0  9995
2 61045  52.9668 180.8624 0004683 193.3819 166.7052 15.20704793102028
SPACEMOBILE-005         
1 61046U 24163B   26196.13107299  .00002240  00000+0  11521-3 0  9999
2 61046  52.9764 180.8869 0008712 195.3968 164.6762 15.20720938102014
SPACEMOBILE-001         
1 61047U 24163C   26196.12942133  .00000079  00000+0  18282-4 0  9993
2 61047  52.9735 180.6052 0007226 193.3954 166.6849 15.20741003102011
SPACEMOBILE-002         
1 61048U 24163D   26196.17901103  .00004776  00000+0  22847-3 0  9990
2 61048  52.9777 180.4166 0006031 191.7990 168.2864 15.20783904102029
SPACEMOBILE-004         
1 61049U 24163E   26193.40140888  .00012717  00000+0  58302-3 0  9998
2 61049  52.9682 192.9673 0006853 216.7757 143.2768 15.20795560101607
SPACEMOBILE-001 DEB     
1 62369U 24163F   26196.17909919  .00004536  00000+0  14094-3 0  9999
2 62369  52.9935 147.5995 0005705 253.4352 106.6022 15.35387918 90806
SPACEMOBILE-002 DEB     
1 62370U 24163G   26196.09150650  .00012919  00000+0  28931-3 0  9991
2 62370  52.9425 132.1411 0004594 285.8142  74.2355 15.43818878102677
SPACEMOBILE-003 DEB     
1 62371U 24163H   26196.12524306  .00012617  00000+0  30474-3 0  9999
2 62371  52.9698 138.8810 0005485 236.2534 123.7947 15.41563195 96194
SPACEMOBILE-004 DEB     
1 62372U 24163J   26196.07892692  .00008000  00000+0  20213-3 0  9991
2 62372  52.9841 138.7541 0002708 263.9639  96.1055 15.40761628 99256
SPACEMOBILE-005 DEB     
1 62373U 24163K   26196.13621765  .00005203  00000+0  16370-3 0  9991
2 62373  52.9741 152.7002 0005594 229.6496 130.4016 15.34658170102412
SPACEMOBILE-006         
1 67232U 25309A   26196.01343646  .00000653  00000+0  46475-4 0  9993
2 67232  52.9933 204.1671 0010122 214.6929 145.3405 15.18653340 30824
SPACEMOBILE-008         
1 69589U 26139A   26196.15283431 -.00000015  00000+0  16116-4 0  9994
2 69589  52.9948 135.5996 0005064  56.4295 303.7179 15.12801933  4210
SPACEMOBILE-009         
1 69590U 26139B   26196.15479389  .00000032  00000+0  18841-4 0  9990
2 69590  52.9939 135.6063 0005305  52.2602 307.8869 15.12695262  4219
SPACEMOBILE-010         
1 69591U 26139C   26196.15790242  .00000189  00000+0  27781-4 0  9991
2 69591  52.9945 135.6285 0005235  44.2238 315.9170 15.12527561  4223
