{"fetched_at":"2026-07-15T17:47:32.128Z","source":"https://celestrak.org/NORAD/elements/gp.php?NAME=SPACEMOBILE&FORMAT=JSON","constellation":"ast-spacemobile","records":[{"OBJECT_NAME":"SPACEMOBILE-003","OBJECT_ID":"2024-163A","EPOCH":"2026-07-15T03:32:35.117088","CLASSIFICATION_TYPE":"U","MEAN_MOTION":15.20704793,"ECCENTRICITY":0.0004683,"INCLINATION":52.9668,"RA_OF_ASC_NODE":180.8624,"ARG_OF_PERICENTER":193.3819,"MEAN_ANOMALY":166.7052,"EPHEMERIS_TYPE":0,"NORAD_CAT_ID":61045,"ELEMENT_SET_NO":999,"REV_AT_EPOCH":10202,"BSTAR":0.000057545,"MEAN_MOTION_DOT":0.00000955,"MEAN_MOTION_DDOT":0},{"OBJECT_NAME":"SPACEMOBILE-005","OBJECT_ID":"2024-163B","EPOCH":"2026-07-15T03:08:44.706336","CLASSIFICATION_TYPE":"U","MEAN_MOTION":15.20720938,"ECCENTRICITY":0.0008712,"INCLINATION":52.9764,"RA_OF_ASC_NODE":180.8869,"ARG_OF_PERICENTER":195.3968,"MEAN_ANOMALY":164.6762,"EPHEMERIS_TYPE":0,"NORAD_CAT_ID":61046,"ELEMENT_SET_NO":999,"REV_AT_EPOCH":10201,"BSTAR":0.00011521,"MEAN_MOTION_DOT":0.0000224,"MEAN_MOTION_DDOT":0},{"OBJECT_NAME":"SPACEMOBILE-001","OBJECT_ID":"2024-163C","EPOCH":"2026-07-15T03:06:22.002912","CLASSIFICATION_TYPE":"U","MEAN_MOTION":15.20741003,"ECCENTRICITY":0.0007226,"INCLINATION":52.9735,"RA_OF_ASC_NODE":180.6052,"ARG_OF_PERICENTER":193.3954,"MEAN_ANOMALY":166.6849,"EPHEMERIS_TYPE":0,"NORAD_CAT_ID":61047,"ELEMENT_SET_NO":999,"REV_AT_EPOCH":10201,"BSTAR":0.000018282,"MEAN_MOTION_DOT":7.9e-7,"MEAN_MOTION_DDOT":0},{"OBJECT_NAME":"SPACEMOBILE-002","OBJECT_ID":"2024-163D","EPOCH":"2026-07-15T04:17:46.552992","CLASSIFICATION_TYPE":"U","MEAN_MOTION":15.20783904,"ECCENTRICITY":0.0006031,"INCLINATION":52.9777,"RA_OF_ASC_NODE":180.4166,"ARG_OF_PERICENTER":191.799,"MEAN_ANOMALY":168.2864,"EPHEMERIS_TYPE":0,"NORAD_CAT_ID":61048,"ELEMENT_SET_NO":999,"REV_AT_EPOCH":10202,"BSTAR":0.00022847,"MEAN_MOTION_DOT":0.00004776,"MEAN_MOTION_DDOT":0},{"OBJECT_NAME":"SPACEMOBILE-004","OBJECT_ID":"2024-163E","EPOCH":"2026-07-12T09:38:01.727232","CLASSIFICATION_TYPE":"U","MEAN_MOTION":15.2079556,"ECCENTRICITY":0.0006853,"INCLINATION":52.9682,"RA_OF_ASC_NODE":192.9673,"ARG_OF_PERICENTER":216.7757,"MEAN_ANOMALY":143.2768,"EPHEMERIS_TYPE":0,"NORAD_CAT_ID":61049,"ELEMENT_SET_NO":999,"REV_AT_EPOCH":10160,"BSTAR":0.00058302,"MEAN_MOTION_DOT":0.00012717,"MEAN_MOTION_DDOT":0},{"OBJECT_NAME":"SPACEMOBILE-001 DEB","OBJECT_ID":"2024-163F","EPOCH":"2026-07-15T04:17:54.170016","CLASSIFICATION_TYPE":"U","MEAN_MOTION":15.35387918,"ECCENTRICITY":0.0005705,"INCLINATION":52.9935,"RA_OF_ASC_NODE":147.5995,"ARG_OF_PERICENTER":253.4352,"MEAN_ANOMALY":106.6022,"EPHEMERIS_TYPE":0,"NORAD_CAT_ID":62369,"ELEMENT_SET_NO":999,"REV_AT_EPOCH":9080,"BSTAR":0.00014094,"MEAN_MOTION_DOT":0.00004536,"MEAN_MOTION_DDOT":0},{"OBJECT_NAME":"SPACEMOBILE-002 DEB","OBJECT_ID":"2024-163G","EPOCH":"2026-07-15T02:11:46.161600","CLASSIFICATION_TYPE":"U","MEAN_MOTION":15.43818878,"ECCENTRICITY":0.0004594,"INCLINATION":52.9425,"RA_OF_ASC_NODE":132.1411,"ARG_OF_PERICENTER":285.8142,"MEAN_ANOMALY":74.2355,"EPHEMERIS_TYPE":0,"NORAD_CAT_ID":62370,"ELEMENT_SET_NO":999,"REV_AT_EPOCH":10267,"BSTAR":0.00028931,"MEAN_MOTION_DOT":0.00012919,"MEAN_MOTION_DDOT":0},{"OBJECT_NAME":"SPACEMOBILE-003 DEB","OBJECT_ID":"2024-163H","EPOCH":"2026-07-15T03:00:21.000384","CLASSIFICATION_TYPE":"U","MEAN_MOTION":15.41563195,"ECCENTRICITY":0.0005485,"INCLINATION":52.9698,"RA_OF_ASC_NODE":138.881,"ARG_OF_PERICENTER":236.2534,"MEAN_ANOMALY":123.7947,"EPHEMERIS_TYPE":0,"NORAD_CAT_ID":62371,"ELEMENT_SET_NO":999,"REV_AT_EPOCH":9619,"BSTAR":0.00030474,"MEAN_MOTION_DOT":0.00012617,"MEAN_MOTION_DDOT":0},{"OBJECT_NAME":"SPACEMOBILE-004 DEB","OBJECT_ID":"2024-163J","EPOCH":"2026-07-15T01:53:39.285888","CLASSIFICATION_TYPE":"U","MEAN_MOTION":15.40761628,"ECCENTRICITY":0.0002708,"INCLINATION":52.9841,"RA_OF_ASC_NODE":138.7541,"ARG_OF_PERICENTER":263.9639,"MEAN_ANOMALY":96.1055,"EPHEMERIS_TYPE":0,"NORAD_CAT_ID":62372,"ELEMENT_SET_NO":999,"REV_AT_EPOCH":9925,"BSTAR":0.00020213,"MEAN_MOTION_DOT":0.00008,"MEAN_MOTION_DDOT":0},{"OBJECT_NAME":"SPACEMOBILE-005 DEB","OBJECT_ID":"2024-163K","EPOCH":"2026-07-15T03:16:09.204960","CLASSIFICATION_TYPE":"U","MEAN_MOTION":15.3465817,"ECCENTRICITY":0.0005594,"INCLINATION":52.9741,"RA_OF_ASC_NODE":152.7002,"ARG_OF_PERICENTER":229.6496,"MEAN_ANOMALY":130.4016,"EPHEMERIS_TYPE":0,"NORAD_CAT_ID":62373,"ELEMENT_SET_NO":999,"REV_AT_EPOCH":10241,"BSTAR":0.0001637,"MEAN_MOTION_DOT":0.00005203,"MEAN_MOTION_DDOT":0},{"OBJECT_NAME":"SPACEMOBILE-006","OBJECT_ID":"2025-309A","EPOCH":"2026-07-15T00:19:20.910144","CLASSIFICATION_TYPE":"U","MEAN_MOTION":15.1865334,"ECCENTRICITY":0.0010122,"INCLINATION":52.9933,"RA_OF_ASC_NODE":204.1671,"ARG_OF_PERICENTER":214.6929,"MEAN_ANOMALY":145.3405,"EPHEMERIS_TYPE":0,"NORAD_CAT_ID":67232,"ELEMENT_SET_NO":999,"REV_AT_EPOCH":3082,"BSTAR":0.000046475,"MEAN_MOTION_DOT":0.00000653,"MEAN_MOTION_DDOT":0},{"OBJECT_NAME":"SPACEMOBILE-008","OBJECT_ID":"2026-139A","EPOCH":"2026-07-15T03:40:04.884384","CLASSIFICATION_TYPE":"U","MEAN_MOTION":15.12801933,"ECCENTRICITY":0.0005064,"INCLINATION":52.9948,"RA_OF_ASC_NODE":135.5996,"ARG_OF_PERICENTER":56.4295,"MEAN_ANOMALY":303.7179,"EPHEMERIS_TYPE":0,"NORAD_CAT_ID":69589,"ELEMENT_SET_NO":999,"REV_AT_EPOCH":421,"BSTAR":0.000016116,"MEAN_MOTION_DOT":-1.5e-7,"MEAN_MOTION_DDOT":0},{"OBJECT_NAME":"SPACEMOBILE-009","OBJECT_ID":"2026-139B","EPOCH":"2026-07-15T03:42:54.192096","CLASSIFICATION_TYPE":"U","MEAN_MOTION":15.12695262,"ECCENTRICITY":0.0005305,"INCLINATION":52.9939,"RA_OF_ASC_NODE":135.6063,"ARG_OF_PERICENTER":52.2602,"MEAN_ANOMALY":307.8869,"EPHEMERIS_TYPE":0,"NORAD_CAT_ID":69590,"ELEMENT_SET_NO":999,"REV_AT_EPOCH":421,"BSTAR":0.000018841,"MEAN_MOTION_DOT":3.2e-7,"MEAN_MOTION_DDOT":0},{"OBJECT_NAME":"SPACEMOBILE-010","OBJECT_ID":"2026-139C","EPOCH":"2026-07-15T03:47:22.769088","CLASSIFICATION_TYPE":"U","MEAN_MOTION":15.12527561,"ECCENTRICITY":0.0005235,"INCLINATION":52.9945,"RA_OF_ASC_NODE":135.6285,"ARG_OF_PERICENTER":44.2238,"MEAN_ANOMALY":315.917,"EPHEMERIS_TYPE":0,"NORAD_CAT_ID":69591,"ELEMENT_SET_NO":999,"REV_AT_EPOCH":422,"BSTAR":0.000027781,"MEAN_MOTION_DOT":0.00000189,"MEAN_MOTION_DDOT":0}]}
